NORAD_CAT_ID,OBJECT_NAME,OBJECT_TYPE,EPOCH,MEAN_MOTION,ECCENTRICITY,INCLINATION,RA_OF_ASC_NODE,ARG_OF_PERICENTER,MEAN_ANOMALY,BSTAR,MEAN_MOTION_DOT,MEAN_MOTION_DDOT,TLE_LINE0,TLE_LINE1,TLE_LINE2,SEMIMAJOR_AXIS,PERIOD,APOGEE,PERIGEE,DECAYED
53168.0,STARLINK-4105,PAYLOAD,2024-06-26 00:39:12,15.08855096,0.0001454,53.2172,74.8711,95.3789,264.7369,1.9908e-05,2.9e-07,0.0,0 STARLINK-4105,1 53168U 22083AN  24178.02722355  .00000029  00000-0  19908-4 0  9998,2 53168  53.2172  74.8711 0001454  95.3789 264.7369 15.08855096108146,6917.834,95.437,540.705,538.693,0.0
53168.0,STARLINK-4105,PAYLOAD,2024-06-26 22:54:37,15.08826911,0.0001521,53.2172,70.6998,87.165,272.9517,0.0001953,2.821e-05,0.0,0 STARLINK-4105,1 53168U 22083AN  24178.95459764  .00002821  00000-0  19530-3 0  9993,2 53168  53.2172  70.6998 0001521  87.1650 272.9517 15.08826911107653,6917.92,95.438,540.838,538.733,0.0
53168.0,STARLINK-4105,PAYLOAD,2024-06-27 00:30:00,15.0882705,0.0001592,53.2177,70.4064,98.5104,261.6069,0.00019844,2.87e-05,0.0,0 STARLINK-4105,1 53168U 22083AN  24179.02083785  .00002870  00000-0  19844-3 0  9990,2 53168  53.2177  70.4064 0001592  98.5104 261.6069 15.08827050108291,6917.92,95.438,540.886,538.684,0.0
53168.0,STARLINK-4105,PAYLOAD,2024-06-27 10:02:18,15.08839181,0.0001498,53.2179,68.6214,114.8596,245.2552,0.00014914,2.086e-05,0.0,0 STARLINK-4105,1 53168U 22083AN  24179.41827186  .00002086  00000-0  14914-3 0  9996,2 53168  53.2179  68.6214 0001498 114.8596 245.2552 15.08839181108351,6917.883,95.438,540.784,538.712,0.0
53168.0,STARLINK-4105,PAYLOAD,2024-06-27 22:45:24,15.08836004,0.000123,53.2161,66.2473,106.5541,253.5587,-0.00011362,-2.095e-05,0.0,0 STARLINK-4105,1 53168U 22083AN  24179.94820465 -.00002095  00000-0 -11362-3 0  9993,2 53168  53.2161  66.2473 0001230 106.5541 253.5587 15.08836004107805,6917.893,95.438,540.609,538.907,0.0
53168.0,STARLINK-4105,PAYLOAD,2024-06-28 21:00:47,15.08853421,0.0001481,53.2181,62.0818,106.3747,253.7408,0.00018175,2.607e-05,0.0,0 STARLINK-4105,1 53168U 22083AN  24180.87554531  .00002607  00000-0  18175-3 0  9991,2 53168  53.2181  62.0818 0001481 106.3747 253.7408 15.08853421108579,6917.839,95.437,540.729,538.68,0.0
53168.0,STARLINK-4105,PAYLOAD,2024-06-28 22:36:10,15.08856698,0.0001447,53.2178,61.7853,107.5203,252.5947,0.0002171,3.17e-05,0.0,0 STARLINK-4105,1 53168U 22083AN  24180.94178304  .00003170  00000-0  21710-3 0  9994,2 53168  53.2178  61.7853 0001447 107.5203 252.5947 15.08856698107957,6917.829,95.436,540.695,538.693,0.0
53168.0,STARLINK-4105,PAYLOAD,2024-06-29 19:16:12,15.08822822,0.0001254,53.2169,57.9197,107.921,252.1919,-8.6896e-05,-1.67e-05,0.0,0 STARLINK-4105,1 53168U 22083AN  24181.80292476 -.00001670  00000-0 -86896-4 0  9999,2 53168  53.2169  57.9197 0001254 107.9210 252.1919 15.08822822108715,6917.933,95.439,540.665,538.93,0.0
53168.0,STARLINK-4105,PAYLOAD,2024-06-29 22:26:58,15.08824314,0.0001273,53.2172,57.3269,103.8704,256.243,-0.00030672,-5.164e-05,0.0,0 STARLINK-4105,1 53168U 22083AN  24181.93540147 -.00005164  00000-0 -30672-3 0  9996,2 53168  53.2172  57.3269 0001273 103.8704 256.2430 15.08824314108101,6917.928,95.439,540.674,538.913,0.0
53168.0,STARLINK-4105,PAYLOAD,2024-06-30 01:37:45,15.08824222,0.0001172,53.2167,56.7311,105.321,254.7912,-0.00028706,-4.851e-05,0.0,0 STARLINK-4105,1 53168U 22083AN  24182.06788247 -.00004851  00000-0 -28706-3 0  9993,2 53168  53.2167  56.7311 0001172 105.3210 254.7912 15.08824222108121,6917.929,95.439,540.604,538.983,0.0
53168.0,STARLINK-4105,PAYLOAD,2024-06-30 20:42:22,15.08838032,0.0001156,53.2169,53.1641,106.714,253.3979,0.00030529,4.574e-05,0.0,0 STARLINK-4105,1 53168U 22083AN  24182.86276384  .00004574  00000-0  30529-3 0  9991,2 53168  53.2169  53.1641 0001156 106.7140 253.3979 15.08838032108873,6917.886,95.438,540.551,538.952,0.0
53168.0,STARLINK-4105,PAYLOAD,2024-06-30 22:17:46,15.08838785,0.0001083,53.2165,52.8676,108.2813,251.8297,0.00084003,0.00013106,0.0,0 STARLINK-4105,1 53168U 22083AN  24182.92900697  .00013106  00000-0  84003-3 0  9996,2 53168  53.2165  52.8676 0001083 108.2813 251.8297 15.08838785108259,6917.884,95.438,540.498,539.0,0.0
53168.0,STARLINK-4105,PAYLOAD,2024-07-01 07:50:04,15.08865099,0.0001112,53.217,51.0838,108.8497,251.2616,0.0012769,0.00020106,0.0,0 STARLINK-4105,1 53168U 22083AN  24183.32644147  .00020106  00000-0  12769-2 0  9993,2 53168  53.2170  51.0838 0001112 108.8497 251.2616 15.08865099108946,6917.804,95.436,540.438,538.899,0.0
53168.0,STARLINK-4105,PAYLOAD,2024-07-01 20:33:10,15.08842309,0.0001053,53.2171,48.7058,88.0535,272.0578,0.00082603,0.00012884,0.0,0 STARLINK-4105,1 53168U 22083AN  24183.85636592  .00012884  00000-0  82603-3 0  9995,2 53168  53.2171  48.7058 0001053  88.0535 272.0578 15.08842309109027,6917.873,95.437,540.467,539.01,0.0
53168.0,STARLINK-4105,PAYLOAD,2024-07-01 22:08:33,15.08846762,0.0001019,53.2169,48.4084,91.74,268.3709,0.0010797,0.0001694,0.0,0 STARLINK-4105,1 53168U 22083AN  24183.92260516  .00016940  00000-0  10797-2 0  9993,2 53168  53.2169  48.4084 0001019  91.7400 268.3709 15.08846762108406,6917.86,95.437,540.43,539.02,0.0
53168.0,STARLINK-4105,PAYLOAD,2024-07-02 07:40:51,15.08860178,9.67e-05,53.2167,46.6239,87.9388,272.1715,0.0012823,0.0002019,0.0,0 STARLINK-4105,1 53168U 22083AN  24184.32004137  .00020190  00000-0  12823-2 0  9997,2 53168  53.2167  46.6239 0000967  87.9388 272.1715 15.08860178108462,6917.819,95.436,540.353,539.015,0.0
53168.0,STARLINK-4105,PAYLOAD,2024-07-02 20:23:57,15.08837974,9.22e-05,53.2171,44.2454,79.4449,280.6646,0.00094392,0.00014766,0.0,0 STARLINK-4105,1 53168U 22083AN  24184.84996693  .00014766  00000-0  94392-3 0  9995,2 53168  53.2171  44.2454 0000922  79.4449 280.6646 15.08837974109179,6917.887,95.438,540.389,539.114,0.0
53168.0,STARLINK-4105,PAYLOAD,2024-07-02 21:59:20,15.08842456,8.97e-05,53.217,43.9479,73.733,286.3761,0.0011627,0.00018266,0.0,0 STARLINK-4105,1 53168U 22083AN  24184.91620674  .00018266  00000-0  11627-2 0  9994,2 53168  53.2170  43.9479 0000897  73.7330 286.3761 15.08842456108551,6917.873,95.437,540.358,539.117,0.0
53168.0,STARLINK-4105,PAYLOAD,2024-07-03 20:14:44,15.08849068,0.0001021,53.2163,39.7845,67.2854,292.8246,0.00092807,0.00014517,0.0,0 STARLINK-4105,1 53168U 22083AN  24185.84356840  .00014517  00000-0  92807-3 0  9993,2 53168  53.2163  39.7845 0001021  67.2854 292.8246 15.08849068109324,6917.853,95.437,540.424,539.011,0.0
53168.0,STARLINK-4105,PAYLOAD,2024-07-03 21:50:07,15.08843442,9.89e-05,53.217,39.4832,81.0758,279.0346,0.00042048,6.411e-05,0.0,0 STARLINK-4105,1 53168U 22083AN  24185.90980747  .00006411  00000-0  42048-3 0  9995,2 53168  53.2170  39.4832 0000989  81.0758 279.0346 15.08843442108703,6917.87,95.437,540.419,539.051,0.0
53168.0,STARLINK-4105,PAYLOAD,2024-07-04 13:43:58,15.0884141,0.0001036,53.217,36.5142,88.9127,271.1984,0.00016817,2.39e-05,0.0,0 STARLINK-4105,1 53168U 22083AN  24186.57220809  .00002390  00000-0  16817-3 0  9992,2 53168  53.2170  36.5142 0001036  88.9127 271.1984 15.08841410109430,6917.876,95.437,540.458,539.024,0.0
53168.0,STARLINK-4105,PAYLOAD,2024-07-04 21:40:54,15.08844733,0.0001046,53.2173,35.0267,94.9191,265.1921,0.00019508,2.819e-05,0.0,0 STARLINK-4105,1 53168U 22083AN  24186.90340691  .00002819  00000-0  19508-3 0  9997,2 53168  53.2173  35.0267 0001046  94.9191 265.1921 15.08844733108854,6917.866,95.437,540.455,539.007,0.0
53168.0,STARLINK-4105,PAYLOAD,2024-07-05 07:13:12,15.08852665,9.87e-05,53.2165,33.241,95.092,265.0185,0.00037893,5.75e-05,0.0,0 STARLINK-4105,1 53168U 22083AN  24187.30084245  .00005750  00000-0  37893-3 0  9996,2 53168  53.2165  33.2410 0000987  95.0920 265.0185 15.08852665108911,6917.842,95.437,540.389,539.024,0.0
53168.0,STARLINK-4105,PAYLOAD,2024-07-05 19:56:18,15.08840945,0.0001028,53.2168,30.863,87.0524,273.0586,5.8377e-05,6.41e-06,0.0,0 STARLINK-4105,1 53168U 22083AN  24187.83076616  .00000641  00000-0  58377-4 0  9992,2 53168  53.2168  30.8630 0001028  87.0524 273.0586 15.08840945109620,6917.878,95.437,540.454,539.031,0.0
53168.0,STARLINK-4105,PAYLOAD,2024-07-06 07:03:59,15.08848841,0.0001076,53.2174,28.7807,89.4523,270.6593,0.00021461,3.13e-05,0.0,0 STARLINK-4105,1 53168U 22083AN  24188.29444260  .00003130  00000-0  21461-3 0  9996,2 53168  53.2174  28.7807 0001076  89.4523 270.6593 15.08848841109069,6917.853,95.437,540.463,538.974,0.0
53168.0,STARLINK-4105,PAYLOAD,2024-07-06 19:47:05,15.08831999,0.000115,53.2173,26.4011,89.2453,270.8671,-0.00011724,-2.153e-05,0.0,0 STARLINK-4105,1 53168U 22083AN  24188.82437066 -.00002153  00000-0 -11724-3 0  9998,2 53168  53.2173  26.4011 0001150  89.2453 270.8671 15.08831999109776,6917.905,95.438,540.565,538.974,0.0
53168.0,STARLINK-4105,PAYLOAD,2024-07-06 22:57:51,15.08833754,0.0001196,53.2175,25.806,90.762,269.3509,-5.5328e-05,-1.168e-05,0.0,0 STARLINK-4105,1 53168U 22083AN  24188.95685085 -.00001168  00000-0 -55328-4 0  9992,2 53168  53.2175  25.8060 0001196  90.7620 269.3509 15.08833754109165,6917.899,95.438,540.592,538.937,0.0
53168.0,STARLINK-4105,PAYLOAD,2024-07-07 19:37:52,15.0884557,0.0001236,53.218,21.9402,85.25,274.8633,0.00035418,5.354e-05,0.0,0 STARLINK-4105,1 53168U 22083AN  24189.81797160  .00005354  00000-0  35418-3 0  9992,2 53168  53.2180  21.9402 0001236  85.2500 274.8633 15.08845570109921,6917.863,95.437,540.583,538.873,0.0
53168.0,STARLINK-4105,PAYLOAD,2024-07-07 22:48:38,15.08847628,0.0001157,53.2179,21.346,84.2354,275.877,0.00040757,6.206e-05,0.0,0 STARLINK-4105,1 53168U 22083AN  24189.95045079  .00006206  00000-0  40757-3 0  9991,2 53168  53.2179  21.3460 0001157  84.2354 275.8770 15.08847628109317,6917.857,95.437,540.522,538.922,0.0
53168.0,STARLINK-4105,PAYLOAD,2024-07-08 19:28:39,15.08846799,0.0001173,53.2174,17.4798,85.1881,274.9245,0.0002729,4.059e-05,0.0,0 STARLINK-4105,1 53168U 22083AN  24190.81157053  .00004059  00000-0  27290-3 0  9995,2 53168  53.2174  17.4798 0001173  85.1881 274.9245 15.08846799110075,6917.86,95.437,540.536,538.913,0.0
